start=new Date('2022-06-15T00:00:00.000Z').valueOf();
sats=[{"ECCENTRICITY":"0.00017610","PERIAPSIS":"538.686","RCS_SIZE":"LARGE","BSTAR":"0.00274390000000","LAUNCH_DATE":"2022-02-21","CENTER_NAME":"EARTH","CLASSIFICATION_TYPE":"U","FILE":"3496199","MEAN_MOTION_DOT":"0.00043589","REV_AT_EPOCH":"130","EPHEMERIS_TYPE":"0","MEAN_MOTION_DDOT":"0.0000000000000","ARG_OF_PERICENTER":"48.5835","TLE_LINE1":"1 51727U 22016P   22165.91667824  .00043589  00000-0  27439-2 0  9998","GP_ID":"206170620","SITE":"AFETR","OBJECT_NAME":"STARLINK-3532","APOAPSIS":"541.122","RA_OF_ASC_NODE":"331.3334","EPOCH":"2022-06-14T22:00:00.999936","INCLINATION":"53.2162","COUNTRY_CODE":"US","OBJECT_TYPE":"PAYLOAD","REF_FRAME":"TEME","SEMIMAJOR_AXIS":"6918.039","PERIOD":"95.441","DECAY_DATE":null,"OBJECT_ID":"2022-016P","TIME_SYSTEM":"UTC","TLE_LINE2":"2 51727  53.2162 331.3334 0001761  48.5835  78.9857 15.08788034  1303","NORAD_CAT_ID":"51727","MEAN_ANOMALY":"78.9857","MEAN_MOTION":"15.08788034","ELEMENT_SET_NO":"999","MEAN_ELEMENT_THEORY":"SGP4"},{"RCS_SIZE":"LARGE","PERIAPSIS":"538.771","ECCENTRICITY":"0.00015870","CLASSIFICATION_TYPE":"U","LAUNCH_DATE":"2022-02-21","CENTER_NAME":"EARTH","BSTAR":"0.00274820000000","REV_AT_EPOCH":"130","MEAN_MOTION_DOT":"0.00043672","EPHEMERIS_TYPE":"0","FILE":"3496199","SITE":"AFETR","TLE_LINE1":"1 51728U 22016Q   22165.91667824  .00043672  00000-0  27482-2 0  9990","ARG_OF_PERICENTER":"42.4527","GP_ID":"206171371","MEAN_MOTION_DDOT":"0.0000000000000","EPOCH":"2022-06-14T22:00:00.999936","RA_OF_ASC_NODE":"321.3194","APOAPSIS":"540.967","OBJECT_NAME":"STARLINK-3448","OBJECT_TYPE":"PAYLOAD","COUNTRY_CODE":"US","INCLINATION":"53.2164","OBJECT_ID":"2022-016Q","DECAY_DATE":null,"PERIOD":"95.440","SEMIMAJOR_AXIS":"6918.004","REF_FRAME":"TEME","MEAN_ELEMENT_THEORY":"SGP4","ELEMENT_SET_NO":"999","MEAN_MOTION":"15.08799450","MEAN_ANOMALY":"280.1060","NORAD_CAT_ID":"51728","TLE_LINE2":"2 51728  53.2164 321.3194 0001587  42.4527 280.1060 15.08799450  1303","TIME_SYSTEM":"UTC"},{"OBJECT_TYPE":"PAYLOAD","COUNTRY_CODE":"US","INCLINATION":"53.2156","EPOCH":"2022-06-14T22:00:00.999936","OBJECT_NAME":"STARLINK-3523","RA_OF_ASC_NODE":"321.3200","APOAPSIS":"540.999","ELEMENT_SET_NO":"999","MEAN_ELEMENT_THEORY":"SGP4","NORAD_CAT_ID":"51729","TIME_SYSTEM":"UTC","TLE_LINE2":"2 51729  53.2156 321.3200 0001713  50.2579 212.2735 15.08817425  1306","MEAN_MOTION":"15.08817425","MEAN_ANOMALY":"212.2735","OBJECT_ID":"2022-016R","DECAY_DATE":null,"SEMIMAJOR_AXIS":"6917.949","REF_FRAME":"TEME","PERIOD":"95.439","CLASSIFICATION_TYPE":"U","CENTER_NAME":"EARTH","LAUNCH_DATE":"2022-02-21","BSTAR":"0.00177640000000","PERIAPSIS":"538.629","RCS_SIZE":"LARGE","ECCENTRICITY":"0.00017130","SITE":"AFETR","MEAN_MOTION_DDOT":"0.0000000000000","TLE_LINE1":"1 51729U 22016R   22165.91667824  .00028079  00000-0  17764-2 0  9997","GP_ID":"206172117","ARG_OF_PERICENTER":"50.2579","EPHEMERIS_TYPE":"0","MEAN_MOTION_DOT":"0.00028079","REV_AT_EPOCH":"130","FILE":"3496199"},{"FILE":"3496199","REV_AT_EPOCH":"130","MEAN_MOTION_DOT":"0.00045019","EPHEMERIS_TYPE":"0","MEAN_MOTION_DDOT":"0.0000000000000","TLE_LINE1":"1 51730U 22016S   22165.91667824  .00045019  00000-0  28319-2 0  9990","ARG_OF_PERICENTER":"49.5171","GP_ID":"206170870","SITE":"AFETR","ECCENTRICITY":"0.00016540","PERIAPSIS":"538.727","RCS_SIZE":"LARGE","BSTAR":"0.00283190000000","CLASSIFICATION_TYPE":"U","LAUNCH_DATE":"2022-02-21","CENTER_NAME":"EARTH","SEMIMAJOR_AXIS":"6918.006","REF_FRAME":"TEME","PERIOD":"95.440","OBJECT_ID":"2022-016S","DECAY_DATE":null,"NORAD_CAT_ID":"51730","TIME_SYSTEM":"UTC","TLE_LINE2":"2 51730  53.2186 321.3258 0001654  49.5171 313.0211 15.08798916  1309","MEAN_MOTION":"15.08798916","MEAN_ANOMALY":"313.0211","ELEMENT_SET_NO":"999","MEAN_ELEMENT_THEORY":"SGP4","OBJECT_NAME":"STARLINK-3530","RA_OF_ASC_NODE":"321.3258","APOAPSIS":"541.015","EPOCH":"2022-06-14T22:00:00.999936","INCLINATION":"53.2186","OBJECT_TYPE":"PAYLOAD","COUNTRY_CODE":"US"},{"FILE":"3496199","REV_AT_EPOCH":"130","MEAN_MOTION_DOT":"0.00000495","EPHEMERIS_TYPE":"0","GP_ID":"206171120","TLE_LINE1":"1 51731U 22016T   22165.91667824  .00000495  00000-0  49226-4 0  9992","ARG_OF_PERICENTER":"45.7248","MEAN_MOTION_DDOT":"0.0000000000000","SITE":"AFETR","ECCENTRICITY":"0.00016940","RCS_SIZE":"LARGE","PERIAPSIS":"538.614","BSTAR":"0.00004922600000","CENTER_NAME":"EARTH","LAUNCH_DATE":"2022-02-21","CLASSIFICATION_TYPE":"U","PERIOD":"95.438","REF_FRAME":"TEME","SEMIMAJOR_AXIS":"6917.921","DECAY_DATE":null,"OBJECT_ID":"2022-016T","MEAN_ANOMALY":"256.8067","MEAN_MOTION":"15.08826749","TIME_SYSTEM":"UTC","TLE_LINE2":"2 51731  53.2166 321.3212 0001694  45.7248 256.8067 15.08826749  1304","NORAD_CAT_ID":"51731","MEAN_ELEMENT_THEORY":"SGP4","ELEMENT_SET_NO":"999","APOAPSIS":"540.958","RA_OF_ASC_NODE":"321.3212","OBJECT_NAME":"STARLINK-3514","EPOCH":"2022-06-14T22:00:00.999936","INCLINATION":"53.2166","COUNTRY_CODE":"US","OBJECT_TYPE":"PAYLOAD"},{"OBJECT_ID":"2022-016U","DECAY_DATE":null,"SEMIMAJOR_AXIS":"6917.954","REF_FRAME":"TEME","PERIOD":"95.439","ELEMENT_SET_NO":"999","MEAN_ELEMENT_THEORY":"SGP4","NORAD_CAT_ID":"51732","TIME_SYSTEM":"UTC","TLE_LINE2":"2 51732  53.2196 321.3273 0001760  45.7611 336.7793 15.08815813  1307","MEAN_MOTION":"15.08815813","MEAN_ANOMALY":"336.7793","EPOCH":"2022-06-14T22:00:00.999936","OBJECT_NAME":"STARLINK-3518","RA_OF_ASC_NODE":"321.3273","APOAPSIS":"541.037","OBJECT_TYPE":"PAYLOAD","COUNTRY_CODE":"US","INCLINATION":"53.2196","MEAN_MOTION_DOT":"0.00012599","EPHEMERIS_TYPE":"0","REV_AT_EPOCH":"130","FILE":"3496199","SITE":"AFETR","MEAN_MOTION_DDOT":"0.0000000000000","GP_ID":"206171871","TLE_LINE1":"1 51732U 22016U   22165.91667824  .00012599  00000-0  80881-3 0  9992","ARG_OF_PERICENTER":"45.7611","PERIAPSIS":"538.602","RCS_SIZE":"LARGE","ECCENTRICITY":"0.00017600","CLASSIFICATION_TYPE":"U","CENTER_NAME":"EARTH","LAUNCH_DATE":"2022-02-21","BSTAR":"0.00080881000000"},{"EPOCH":"2022-06-14T22:00:00.999936","APOAPSIS":"541.121","RA_OF_ASC_NODE":"321.3192","OBJECT_NAME":"STARLINK-3525","COUNTRY_CODE":"US","OBJECT_TYPE":"PAYLOAD","INCLINATION":"53.2166","DECAY_DATE":null,"OBJECT_ID":"2022-016V","PERIOD":"95.440","REF_FRAME":"TEME","SEMIMAJOR_AXIS":"6918.009","MEAN_ELEMENT_THEORY":"SGP4","ELEMENT_SET_NO":"999","MEAN_ANOMALY":"302.5210","MEAN_MOTION":"15.08797913","TIME_SYSTEM":"UTC","TLE_LINE2":"2 51733  53.2166 321.3192 0001803  40.0324 302.5210 15.08797913  1307","NORAD_CAT_ID":"51733","RCS_SIZE":"LARGE","PERIAPSIS":"538.627","ECCENTRICITY":"0.00018030","LAUNCH_DATE":"2022-02-21","CENTER_NAME":"EARTH","CLASSIFICATION_TYPE":"U","BSTAR":"0.00276470000000","REV_AT_EPOCH":"130","MEAN_MOTION_DOT":"0.00043936","EPHEMERIS_TYPE":"0","FILE":"3496199","SITE":"AFETR","TLE_LINE1":"1 51733U 22016V   22165.91667824  .00043936  00000-0  27647-2 0  9992","GP_ID":"206171618","ARG_OF_PERICENTER":"40.0324","MEAN_MOTION_DDOT":"0.0000000000000"},{"ECCENTRICITY":"0.00015730","PERIAPSIS":"538.790","RCS_SIZE":"LARGE","BSTAR":"0.00298840000000","CLASSIFICATION_TYPE":"U","CENTER_NAME":"EARTH","LAUNCH_DATE":"2022-02-21","FILE":"3496199","REV_AT_EPOCH":"130","MEAN_MOTION_DOT":"0.00047537","EPHEMERIS_TYPE":"0","MEAN_MOTION_DDOT":"0.0000000000000","TLE_LINE1":"1 51734U 22016W   22165.91667824  .00047537  00000-0  29884-2 0  9999","GP_ID":"206170371","ARG_OF_PERICENTER":"49.5638","SITE":"AFETR","OBJECT_NAME":"STARLINK-3450","RA_OF_ASC_NODE":"321.3295","APOAPSIS":"540.966","EPOCH":"2022-06-14T22:00:00.999936","INCLINATION":"53.2139","OBJECT_TYPE":"PAYLOAD","COUNTRY_CODE":"US","SEMIMAJOR_AXIS":"6918.013","REF_FRAME":"TEME","PERIOD":"95.440","OBJECT_ID":"2022-016W","DECAY_DATE":null,"NORAD_CAT_ID":"51734","TIME_SYSTEM":"UTC","TLE_LINE2":"2 51734  53.2139 321.3295 0001573  49.5638  32.9851 15.08796619  1305","MEAN_ANOMALY":"32.9851","MEAN_MOTION":"15.08796619","ELEMENT_SET_NO":"999","MEAN_ELEMENT_THEORY":"SGP4"},{"MEAN_MOTION_DOT":"0.00026699","REV_AT_EPOCH":"130","EPHEMERIS_TYPE":"0","FILE":"3496199","SITE":"AFETR","GP_ID":"206170621","TLE_LINE1":"1 51735U 22016X   22165.91667824  .00026699  00000-0  16904-2 0  9995","ARG_OF_PERICENTER":"52.4071","MEAN_MOTION_DDOT":"0.0000000000000","RCS_SIZE":"LARGE","PERIAPSIS":"538.659","ECCENTRICITY":"0.00016800","CLASSIFICATION_TYPE":"U","LAUNCH_DATE":"2022-02-21","CENTER_NAME":"EARTH","BSTAR":"0.00169040000000","OBJECT_ID":"2022-016X","DECAY_DATE":null,"PERIOD":"95.439","SEMIMAJOR_AXIS":"6917.956","REF_FRAME":"TEME","MEAN_ELEMENT_THEORY":"SGP4","ELEMENT_SET_NO":"999","MEAN_ANOMALY":"350.1333","MEAN_MOTION":"15.08815266","NORAD_CAT_ID":"51735","TLE_LINE2":"2 51735  53.2190 321.3258 0001680  52.4071 350.1333 15.08815266  1305","TIME_SYSTEM":"UTC","EPOCH":"2022-06-14T22:00:00.999936","RA_OF_ASC_NODE":"321.3258","APOAPSIS":"540.983","OBJECT_NAME":"STARLINK-3517","OBJECT_TYPE":"PAYLOAD","COUNTRY_CODE":"US","INCLINATION":"53.2190"},{"FILE":"3496199","REV_AT_EPOCH":"130","MEAN_MOTION_DOT":"0.00019482","EPHEMERIS_TYPE":"0","MEAN_MOTION_DDOT":"0.0000000000000","GP_ID":"206171372","TLE_LINE1":"1 51736U 22016Y   22165.91667824  .00019482  00000-0  12398-2 0  9991","ARG_OF_PERICENTER":"45.1687","SITE":"AFETR","ECCENTRICITY":"0.00017490","PERIAPSIS":"538.629","RCS_SIZE":"LARGE","BSTAR":"0.00123980000000","LAUNCH_DATE":"2022-02-21","CENTER_NAME":"EARTH","CLASSIFICATION_TYPE":"U","REF_FRAME":"TEME","SEMIMAJOR_AXIS":"6917.974","PERIOD":"95.439","DECAY_DATE":null,"OBJECT_ID":"2022-016Y","TIME_SYSTEM":"UTC","TLE_LINE2":"2 51736  53.2143 321.3293 0001749  45.1687  77.3667 15.08809385  1304","NORAD_CAT_ID":"51736","MEAN_MOTION":"15.08809385","MEAN_ANOMALY":"77.3667","ELEMENT_SET_NO":"999","MEAN_ELEMENT_THEORY":"SGP4","OBJECT_NAME":"STARLINK-3447","APOAPSIS":"541.049","RA_OF_ASC_NODE":"321.3293","EPOCH":"2022-06-14T22:00:00.999936","INCLINATION":"53.2143","COUNTRY_CODE":"US","OBJECT_TYPE":"PAYLOAD"}];
